province,city,county,scenic,batch,kw,longitude,latitude,adcode,matched_name,via_fallback
北京市,,东城区,故宫博物院,,北京市故宫博物院,116.410829,39.881913,110101,天坛公园,False
北京市,,东城区,天坛公园,,北京市天坛公园,116.410829,39.881913,110101,天坛公园,False
北京市,,海淀区,颐和园,,北京市颐和园,116.410829,39.881913,110101,天坛公园,False
北京市,,海淀区,圆明园景区,,北京市圆明园景区,116.410829,39.881913,110101,天坛公园,False
北京市,,延庆区,八达岭长城（八达岭-慕田峪长城）,,北京市八达岭长城（八达岭-慕田峪长城）,116.410829,39.881913,110101,天坛公园,False
北京市,,怀柔区,慕田峪长城旅游景区（八达岭-慕田峪长城）,,北京市慕田峪长城旅游景区（八达岭-慕田峪长城）,116.410829,39.881913,110101,天坛公园,False
北京市,,昌平区,明十三陵景区,,北京市明十三陵景区,116.246624,40.276604,110114,昌平苹果主题公园,False
北京市,,西城区,恭王府景区,,北京市恭王府景区,116.410829,39.881913,110101,天坛公园,False
北京市,,朝阳区,奥林匹克公园,,北京市奥林匹克公园,116.275228,39.911837,110108,五棵松奥林匹克文化公园,False
北京市,,通州区,北京（通州）大运河文化旅游景区,,北京市北京（通州）大运河文化旅游景区,116.744693,39.884877,110112,清风廉政文化主题公园,False
天津市,,南开区,天津古文化街旅游区（津门故里）,,天津市天津古文化街旅游区（津门故里）,117.198435,39.131867,120105,海河中心广场公园,False
天津市,,蓟州区,天津盘山风景名胜区,,天津市天津盘山风景名胜区,117.272809,39.143415,120102,桥园公园,False
河北省,秦皇岛市,山海关区,山海关景区,,河北省秦皇岛市山海关景区,119.488542,39.813902,130304,老虎石海上公园,False
河北省,保定市,安新县,安新白洋淀景区,,河北省保定市安新白洋淀景区,115.952869,38.959794,130632,白洋淀旅游湿地公园,False
河北省,保定市,涞水县,野三坡景区,,河北省保定市野三坡景区,115.954309,38.955233,130632,白洋淀长廊,False
河北省,保定市,涞源县,白石山景区,,河北省保定市白石山景区,115.954309,38.955233,130632,白洋淀长廊,False
河北省,保定市,易县,清西陵景区,,河北省保定市清西陵景区,115.954309,38.955233,130632,白洋淀长廊,False
河北省,承德市,双桥区,承德避暑山庄及周围寺庙景区,,河北省承德市承德避暑山庄及周围寺庙景区,118.681745,41.008833,130881,泽州园,False
河北省,承德市,滦平县,金山岭长城景区,,河北省承德市金山岭长城景区,118.681745,41.008833,130881,泽州园,False
河北省,石家庄市,平山县,西柏坡景区,,河北省石家庄市西柏坡景区,113.935699,38.348128,130131,西柏坡国家登山健身步道,False
河北省,唐山市,遵化市,清东陵景区,,河北省唐山市清东陵景区,117.624240,40.188137,130281,万佛园,False
河北省,唐山市,路南区,南湖·开滦旅游景区,,河北省唐山市南湖·开滦旅游景区,118.122844,39.823449,130208,天宫寺塔,False
河北省,邯郸市,涉县,娲皇宫景区,,河北省邯郸市娲皇宫景区,114.590974,36.323391,130423,七子园,False
河北省,邯郸市,永年区,广府古城景区,,河北省邯郸市广府古城景区,114.590974,36.323391,130423,七子园,False
河北省,衡水市,桃城区、冀州区,衡水湖旅游景区,,河北省衡水市衡水湖旅游景区,115.654561,37.653210,131102,衡水湖湿地公园,False
山西省,大同市,云冈区,云冈石窟,,山西省大同市云冈石窟,113.137759,40.102678,140214,晋华宫国家矿山公园,False
山西省,忻州市,五台县,五台山风景名胜区,,山西省忻州市五台山风景名胜区,113.187365,38.697898,140922,傅斯公园,False
山西省,忻州市,代县,雁门关景区,,山西省忻州市雁门关景区,112.878966,39.182243,140923,山西省忻州市代县雁门关景区,False
山西省,晋城市,阳城县,皇城相府生态文化旅游区,,山西省晋城市皇城相府生态文化旅游区,113.173829,35.854232,140524,杨村南湖文化公园,False
山西省,晋中市,介休市,介休绵山景区,,山西省晋中市介休绵山景区,111.894688,37.022801,140781,绵山公园,False
山西省,晋中市,祁县,乔家大院文化园区,,山西省晋中市乔家大院文化园区,112.682658,37.789879,140702,九龙国际文化生态旅游园区,False
山西省,晋中市,平遥县,平遥古城景区,,山西省晋中市平遥古城景区,112.186281,37.196911,140728,迎薰公园,False
山西省,临汾市,洪洞县,洪洞大槐树寻根祭祖园景区,,山西省临汾市洪洞大槐树寻根祭祖园景区,111.486442,36.078696,141002,汾河公园,False
山西省,临汾市,乡宁县,云丘山景区,,山西省临汾市云丘山景区,111.021057,35.753481,141029,山西省临汾市乡宁县云丘山景区,False
山西省,临汾市,吉县,黄河壶口瀑布旅游区,,山西省临汾市黄河壶口瀑布旅游区,111.486442,36.078696,141002,汾河公园,False
山西省,长治市,壶关县,壶关太行山大峡谷八泉峡景区,,山西省长治市壶关太行山大峡谷八泉峡景区,113.562808,35.958201,140427,山西省长治市壶关县太行山大峡谷八泉峡景区,False
山西省,太原市,晋源区,晋祠天龙山景区,,山西省太原市晋祠天龙山景区,112.450794,37.704552,140110,晋祠景区,False
内蒙古自治区,鄂尔多斯市,达拉特旗,响沙湾旅游景区,,内蒙古自治区鄂尔多斯市响沙湾旅游景区,109.962311,40.244202,150621,内蒙古自治区鄂尔多斯市达拉特旗响沙湾旅游景区(公交站),False
内蒙古自治区,鄂尔多斯市,伊金霍洛旗,成吉思汗陵旅游区,,内蒙古自治区鄂尔多斯市成吉思汗陵旅游区,109.806231,39.362636,150627,内蒙古自治区鄂尔多斯市伊金霍洛旗成吉思汗陵旅游区,False
内蒙古自治区,呼伦贝尔市,满洲里市,中俄边境旅游区,,内蒙古自治区呼伦贝尔市中俄边境旅游区,117.357303,49.629728,150781,内蒙古自治区呼伦贝尔市满洲里市满洲里中俄边境旅游区,False
内蒙古自治区,呼伦贝尔市,跨县级行政区,呼伦贝尔大草原·莫尔格勒河景区,,内蒙古自治区呼伦贝尔市呼伦贝尔大草原·莫尔格勒河景区,120.415101,50.360025,150784,额尔古纳国家湿地公园,False
内蒙古自治区,兴安盟,阿尔山市,阿尔山·柴河旅游景区,,内蒙古自治区兴安盟阿尔山·柴河旅游景区,120.288571,46.966747,152202,内蒙古自治区兴安盟阿尔山市柴河,False
内蒙古自治区,赤峰市,克什克腾旗,哈斯哈图石阵旅游区,,内蒙古自治区赤峰市哈斯哈图石阵旅游区,118.905996,42.261696,150404,风清园廉政公园,False
内蒙古自治区,阿拉善盟,额济纳旗,胡杨林旅游区,,内蒙古自治区阿拉善盟胡杨林旅游区,101.019461,41.811344,152923,怪树林,False
内蒙古自治区,呼和浩特市,清水河县,老牛湾黄河大峡谷旅游区,,内蒙古自治区呼和浩特市老牛湾黄河大峡谷旅游区,111.428291,39.688844,150124,老牛湾黄河大峡谷旅游景区,False
辽宁省,沈阳市,浑南区,沈阳市植物园,,辽宁省沈阳市沈阳市植物园,123.640922,41.934964,210112,棋盘山1939CS野战公园,False
辽宁省,大连市,中山区,大连老虎滩海洋公园.老虎滩极地馆,,辽宁省大连市大连老虎滩海洋公园.老虎滩极地馆,121.701905,38.899965,210202,海之韵公园,False
辽宁省,大连市,金州区,金石滩景区,,辽宁省大连市金石滩景区,122.024281,39.084961,210213,金石缘公园,False
辽宁省,本溪市,本溪满族自治县,本溪水洞景区,,辽宁省本溪市本溪水洞景区,124.083800,41.300711,210521,辽宁本溪国家地质公园,False
辽宁省,本溪市,桓仁满族自治县,五女山景区,,辽宁省本溪市五女山景区,125.424178,41.254268,210522,桓龙湖国家湿地公园(不对外开放)(建设中),False
辽宁省,鞍山市,铁东区,千山景区,,辽宁省鞍山市千山景区,122.916289,41.154447,210303,运粮河湿地公园,False
辽宁省,盘锦市,大洼区,红海滩风景廊道景区,,辽宁省盘锦市红海滩风景廊道景区,121.880805,40.918194,211104,月牙湾湿地公园,False
吉林省,长春市,宽城区,伪满皇宫博物院,,吉林省长春市伪满皇宫博物院,125.348182,43.907324,220103,廉政文化公园,False
吉林省,长春市,南关区,净月潭景区,,吉林省长春市净月潭景区,125.306789,43.856452,220104,南湖公园,False
吉林省,长春市,南关区,长影世纪城旅游区,,吉林省长春市长影世纪城旅游区,125.306789,43.856452,220104,南湖公园,False
吉林省,长春市,南关区,长春世界雕塑公园旅游景区,,吉林省长春市长春世界雕塑公园旅游景区,125.164233,44.419930,220122,中华第一龙雕塑公园,False
吉林省,白山市,抚松县,长白山景区,,吉林省白山市长白山景区,126.418237,41.945022,220602,水上公园,False
吉林省,延边朝鲜族自治州,敦化市,六鼎山文化旅游区,,吉林省延边朝鲜族自治州六鼎山文化旅游区,128.906000,43.111777,222426,二龙山公园,False
吉林省,通化市,集安市,高句丽文物古迹旅游景区,,吉林省通化市高句丽文物古迹旅游景区,125.949023,41.740702,220502,玉皇山,False
吉林省,松原市,前郭尔罗斯蒙古族自治县,查干湖景区,,吉林省松原市查干湖景区,124.476194,44.981740,220721,九翼查干湖生态公园,False
吉林省,白城市,大安县,大安嫩江湾旅游区,,吉林省白城市大安嫩江湾旅游区,124.315956,45.521552,220882,大安市嫩江湾旅游区外滩,False
黑龙江省,哈尔滨市,松北区,太阳岛景区,,黑龙江省哈尔滨市太阳岛景区,126.612799,45.779383,230102,斯大林公园,False
黑龙江省,黑河市,五大连池市,五大连池景区,,黑龙江省黑河市五大连池景区,126.624865,48.635926,231182,沾河水上公园,False
黑龙江省,牡丹江市,宁安市,镜泊湖景区,,黑龙江省牡丹江市镜泊湖景区,128.994892,44.066543,231084,镜泊湖石瀑公园,False
黑龙江省,伊春市,汤旺县,汤旺河林海奇石景区,,黑龙江省伊春市汤旺河林海奇石景区,129.274664,48.227960,230724,五营红松林海景区,False
黑龙江省,大兴安岭地区,漠河市,北极村旅游区,,黑龙江省大兴安岭地区北极村旅游区,122.210480,53.291244,232701,北极村国家森林公园,False
黑龙江省,鸡西市,虎林市,虎头旅游景区,,黑龙江省鸡西市虎头旅游景区,130.929251,45.223270,230303,鸡西恒山国家矿山公园,False
黑龙江省,齐齐哈尔市,铁锋区,扎龙生态旅游区,,黑龙江省齐齐哈尔市扎龙生态旅游区,123.942514,47.339194,230202,鹤泉园,False
上海市,,浦东新区,上海东方明珠广播电视塔,,上海市上海东方明珠广播电视塔,121.500127,31.241103,310115,东方明珠公园,False
上海市,,浦东新区,上海野生动物园,,上海市上海野生动物园,121.721793,31.055337,310115,上海市浦东新区上海野生动物园,False
上海市,,浦东新区,上海科技馆,,上海市上海科技馆,121.358774,31.401555,310113,诺贝尔科技公园,False
上海市,,黄浦区,一大纪念馆（中国共产党一大·二大·四大纪念馆景区）,,上海市一大纪念馆（中国共产党一大·二大·四大纪念馆景区）,121.162123,30.961147,310117,上海浦江之首,False
上海市,,静安区,二大纪念馆（中国共产党一大·二大·四大纪念馆景区）,,上海市二大纪念馆（中国共产党一大·二大·四大纪念馆景区）,121.162123,30.961147,310117,上海浦江之首,False
上海市,,虹口区,四大纪念馆（中国共产党一大·二大·四大纪念馆景区）,,上海市四大纪念馆（中国共产党一大·二大·四大纪念馆景区）,121.196269,31.062675,310117,上海广富林文化遗址,False
上海市,,崇明区,西沙明珠湖景区,,上海市西沙明珠湖景区,121.261181,31.745504,310151,西沙明珠湖景区,False
江苏省,南京市,玄武区,钟山风景名胜区-中山陵园风景区,,江苏省南京市钟山风景名胜区-中山陵园风景区,118.866392,32.056287,320102,灵谷景区,False
江苏省,南京市,秦淮区,夫子庙—秦淮风光带景区,,江苏省南京市夫子庙—秦淮风光带景区,118.799338,32.023032,320104,东水关遗址公园,False
江苏省,无锡市,滨湖区,中央电视台无锡影视基地三国水浒景区,,江苏省无锡市中央电视台无锡影视基地三国水浒景区,120.234062,31.477490,320211,江苏省无锡市滨湖区三国水浒景区,False
江苏省,无锡市,滨湖区,灵山大佛景区,,江苏省无锡市灵山大佛景区,120.294952,31.683659,320206,吴文化公园,False
江苏省,无锡市,滨湖区,鼋头渚景区,,江苏省无锡市鼋头渚景区,120.075549,31.373903,320211,龙头渚自然公园,False
江苏省,无锡市,梁溪区,惠山古镇景区,,江苏省无锡市惠山古镇景区,120.294952,31.683659,320206,吴文化公园,False
江苏省,苏州市,姑苏区,苏州园林（拙政园、虎丘山、留园）,,江苏省苏州市苏州园林（拙政园、虎丘山、留园）,120.648063,31.333437,320505,苏安河滨水公园,False
江苏省,苏州市,昆山市,周庄古镇景区,,江苏省苏州市周庄古镇景区,120.837550,31.132654,320583,蚬江公园,False
江苏省,苏州市,吴江区,吴江同里古镇风景区,,江苏省苏州市吴江同里古镇风景区,120.716738,31.163384,320509,同里公园,False
江苏省,苏州市,吴中区,金鸡湖景区,,江苏省苏州市金鸡湖景区,120.639606,31.332228,320508,柳荫乐鱼,False
江苏省,苏州市,吴中区,吴中太湖旅游区,,江苏省苏州市吴中太湖旅游区,120.628560,31.261085,320506,儿童公园,False
江苏省,苏州市,常熟市,沙家浜·虞山尚湖旅游区,,江苏省苏州市沙家浜·虞山尚湖旅游区,120.687760,31.639617,320581,荷香洲公园,False
江苏省,扬州市,邗江区,瘦西湖风景区,,江苏省扬州市瘦西湖风景区,119.362373,32.563489,321003,扬州北湖国家湿地公园,False
江苏省,镇江市,润州区,金山（金山·焦山·北固山旅游景区）,,江苏省镇江市金山（金山·焦山·北固山旅游景区）,119.457298,32.216642,321102,北固山公园,False
江苏省,镇江市,京口区,焦山（金山·焦山·北固山旅游景区）,,江苏省镇江市焦山（金山·焦山·北固山旅游景区）,119.457298,32.216642,321102,北固山公园,False
江苏省,镇江市,京口区,北固山（金山·焦山·北固山旅游景区）,,江苏省镇江市北固山（金山·焦山·北固山旅游景区）,119.457298,32.216642,321102,北固山公园,False
江苏省,镇江市,句容市,句容茅山景区,,江苏省镇江市句容茅山景区,119.283854,31.814644,321183,白鹭湿地公园,False
江苏省,常州市,新北区,环球恐龙城景区,,江苏省常州市环球恐龙城景区,119.899025,31.797334,320404,青枫公园,False
江苏省,常州市,溧阳市,天目湖景区,,江苏省常州市天目湖景区,119.988286,31.813192,320411,天目山路口袋公园,False
江苏省,常州市,武进区,中国春秋淹城旅游区,,江苏省常州市中国春秋淹城旅游区,119.926794,31.702263,320412,春秋淹城遗址公园,False
江苏省,南通市,崇川区,濠河景区,,江苏省南通市濠河景区,120.860645,32.011091,320613,西公园旧址,False
江苏省,泰州市,姜堰区,溱湖旅游景区,,江苏省泰州市溱湖旅游景区,120.102963,32.621681,321204,江苏省泰州市姜堰区溱湖,False
江苏省,淮安市,淮安区,周恩来故里旅游景区,,江苏省淮安市周恩来故里旅游景区,119.147844,33.522096,320803,荷湖公园,False
江苏省,盐城市,大丰区,大丰中华麋鹿园景区,,江苏省盐城市大丰中华麋鹿园景区,120.435410,33.262031,320904,荷兰花海,False
江苏省,徐州市,泉山区,云龙湖景区,,江苏省徐州市云龙湖景区,117.157483,34.246044,320311,徐州云龙湖旅游景区滨湖公园,False
江苏省,连云港市,海州区,花果山景区,,江苏省连云港市花果山景区,119.248682,34.719981,320703,创智绿园,False
江苏省,连云港市,连云区,连岛景区,,江苏省连云港市连岛景区,119.496469,34.756401,320703,邓小平公园,False
江苏省,宿迁市,泗洪县,洪泽湖湿地景区,,江苏省宿迁市洪泽湖湿地景区,118.442073,33.231129,321324,洪泽湖,False
浙江省,杭州市,西湖区,西湖风景名胜区,,浙江省杭州市西湖风景名胜区,120.142177,30.225470,330106,太子湾公园,False
浙江省,杭州市,西湖区,西溪湿地旅游区,,浙江省杭州市西溪湿地旅游区,120.077661,30.283366,330106,憇园,False
浙江省,杭州市,淳安县,千岛湖风景区,,浙江省杭州市千岛湖风景区,118.785730,29.721598,330127,威坪镇花海公园,False
浙江省,温州市,乐清市,雁荡山风景名胜区,,浙江省温州市雁荡山风景名胜区,120.268206,27.613357,330326,南雁公园,False
浙江省,温州市,文成县,刘伯温故里景区,,浙江省温州市刘伯温故里景区,119.962125,27.920896,330328,伯温公园,False
浙江省,舟山市,普陀区,普陀山风景名胜区,,浙江省舟山市普陀山风景名胜区,122.315336,29.947472,330903,青龙山公园,False
浙江省,宁波市,奉化区,溪口滕头旅游区,,浙江省宁波市溪口滕头旅游区,121.390857,29.702783,330213,乡愁公园,False
浙江省,宁波市,海曙区,天一阁·月湖景区,,浙江省宁波市天一阁·月湖景区,121.543597,29.867182,330203,月湖公园,False
浙江省,嘉兴市,桐乡市,桐乡乌镇古镇旅游区,,浙江省嘉兴市桐乡乌镇古镇旅游区,120.556664,30.643453,330483,新世纪公园,False
浙江省,嘉兴市,南湖区,南湖旅游区,,浙江省嘉兴市南湖旅游区,120.765108,30.751228,330402,嘉兴市南湖旅游区-会景园,False
浙江省,嘉兴市,嘉善县,西塘古镇旅游景区,,浙江省嘉兴市西塘古镇旅游景区,120.888126,30.940831,330421,五姑娘主题公园,False
浙江省,金华市,东阳市,横店影视城景区,,浙江省金华市横店影视城景区,119.640000,29.097464,330702,金华铁路文化公园,False
浙江省,金华市,婺城区,双龙风景旅游区,,浙江省金华市双龙风景旅游区,119.635893,29.047907,330702,湖海塘公园,False
浙江省,绍兴市,越城区,鲁迅故里·沈园景区,,浙江省绍兴市鲁迅故里·沈园景区,120.590202,29.991680,330602,浙江省绍兴市越城区鲁迅故里沈园(公交站),False
浙江省,衢州市,开化县,开化根宫佛国文化旅游景区,,浙江省衢州市开化根宫佛国文化旅游景区,118.868735,28.954338,330802,大南门遗址公园,False
浙江省,衢州市,江山市,江郎山·廿八都景区,,浙江省衢州市江郎山·廿八都景区,118.417011,29.148035,330824,龙潭公园,False
浙江省,湖州市,南浔区,南浔古镇景区,,浙江省湖州市南浔古镇景区,120.422347,30.852047,330503,金象湖公园,False
浙江省,台州市,天台县,天台山景区,,浙江省台州市天台山景区,120.820968,29.126334,331023,白衣山老年公园,False
浙江省,台州市,仙居县,神仙居景区,,浙江省台州市神仙居景区,120.602502,28.750513,331024,白塔公园,False
浙江省,台州市,临海市,台州府城文化旅游区,,浙江省台州市台州府城文化旅游区,121.447536,28.698503,331002,前所文化人口公园,False
浙江省,丽水市,缙云县,缙云仙都景区,,浙江省丽水市缙云仙都景区,119.907765,28.444024,331102,万象山公园,False
浙江省,丽水市,云和县,云和梯田景区,,浙江省丽水市云和梯田景区,119.466290,28.046110,331125,云和梯田国家湿地公园,False
安徽省,黄山市,黄山区,黄山风景区,,安徽省黄山市黄山风景区,118.172578,30.105148,341003,黄山世界地质公园,False
安徽省,黄山市,黟县,皖南古村落—西递·宏村,,安徽省黄山市皖南古村落—西递·宏村,117.954677,29.919605,341023,漳河滨水公园,False
安徽省,黄山市,歙县,古徽州文化旅游区,,安徽省黄山市古徽州文化旅游区,118.323457,29.819241,341004,徽州文化公园,False
安徽省,池州市,青阳县,九华山风景区,,安徽省池州市九华山风景区,117.823855,30.478665,341723,安徽省池州市青阳县九华山风景区,False
安徽省,安庆市,潜山市,天柱山风景区,,安徽省安庆市天柱山风景区,117.142692,30.538509,340802,秦潭湖湿地公园,False
安徽省,六安市,金寨县,天堂寨旅游景区,,安徽省六安市天堂寨旅游景区,115.774588,31.167421,341524,大别山国家地质公园,False
安徽省,六安市,舒城县,万佛湖景区,,安徽省六安市万佛湖景区,116.775204,31.307126,341523,安徽省六安市舒城县万佛湖,False
安徽省,宣城市,绩溪县,绩溪龙川景区,,安徽省宣城市绩溪龙川景区,118.667414,30.075181,341824,龙川景区,False
安徽省,阜阳市,颍上县,八里河景区,,安徽省阜阳市八里河景区,115.805619,32.855351,341202,城南五道河体育公园,False
安徽省,合肥市,肥西县,三河古镇景区,,安徽省合肥市三河古镇景区,117.295084,31.868980,340103,古逍遥津,False
安徽省,芜湖市,鸠江区,方特旅游区,,安徽省芜湖市方特旅游区,118.377059,31.342512,340202,赭山公园,False
安徽省,马鞍山市,雨山区,长江采石矶文化生态旅游区,,安徽省马鞍山市长江采石矶文化生态旅游区,118.453759,31.659258,340504,滨江文化湿地公园,False
安徽省,滁州市,琅琊区,琅琊山景区,,安徽省滁州市琅琊山景区,118.315393,32.336029,341102,李湾河公园,False
福建省,厦门市,思明区,鼓浪屿风景名胜区,,福建省厦门市鼓浪屿风景名胜区,118.076287,24.473095,350203,海湾公园,False
福建省,厦门市,思明区,厦门园林植物园景区,,福建省厦门市厦门园林植物园景区,118.076287,24.473095,350203,海湾公园,False
福建省,南平市,武夷山市,武夷山风景名胜区,,福建省南平市武夷山风景名胜区,117.953086,27.652138,350782,武夷山风景名胜区-中正公园,False
福建省,龙岩市,永定区,土楼永定（土楼（永定·南靖）旅游景区）,,福建省龙岩市土楼永定（土楼（永定·南靖）旅游景区）,117.055832,24.614167,350627,曲江公园,False
福建省,龙岩市,上杭县,古田旅游区,,福建省龙岩市古田旅游区,116.833159,25.216386,350823,法治文化公园,False
福建省,龙岩市,连城县,冠豸山景区,,福建省龙岩市冠豸山景区,116.681327,25.524599,350825,连城县朋口镇禁毒主题公园,False
福建省,漳州市,南靖县,土楼南靖（土楼（永定·南靖）旅游景区）,,福建省漳州市土楼南靖（土楼（永定·南靖）旅游景区）,117.055832,24.614167,350627,曲江公园,False
福建省,三明市,泰宁县,泰宁风景旅游区,,福建省三明市泰宁风景旅游区,117.131380,26.924709,350429,泰宁风景旅游区,False
福建省,泉州市,丰泽区,清源山景区,,福建省泉州市清源山景区,118.594404,24.932362,350503,泉州市清源山花博园,False
福建省,宁德市,屏南县,白水洋·鸳鸯溪旅游景区,,福建省宁德市白水洋·鸳鸯溪旅游景区,120.031736,26.908004,350921,火车站前公园,False
福建省,宁德市,福鼎市,福鼎太姥山旅游区,,福建省宁德市福鼎太姥山旅游区,120.031736,26.908004,350921,火车站前公园,False
福建省,福州市,鼓楼区,三坊七巷景区,,福建省福州市三坊七巷景区,119.289152,26.092037,350102,西湖公园,False
福建省,莆田市,秀屿区,湄洲岛妈祖文化旅游区,,福建省莆田市湄洲岛妈祖文化旅游区,119.132673,25.144973,350305,妈祖文化体育公园,False
江西省,九江市,庐山市,庐山风景名胜区,,江西省九江市庐山风景名胜区,115.986889,29.712497,360403,甘棠公园,False
江西省,九江市,永修县,庐山西海景区,,江西省九江市庐山西海景区,115.088655,29.254739,360423,庐山西海国家湿地公园,False
江西省,吉安市,井冈山市,井冈山风景旅游区,,江西省吉安市井冈山风景旅游区,114.167145,26.568802,360881,挹翠湖公园,False
江西省,上饶市,玉山县,三清山旅游景区,,江西省上饶市三清山旅游景区,117.984771,28.461726,361102,紫阳公园,False
江西省,上饶市,婺源县,婺源江湾景区,,江西省上饶市婺源江湾景区,117.867677,29.249209,361130,茶文化公园,False
江西省,上饶市,弋阳县,龟峰景区,,江西省上饶市龟峰景区,117.411718,28.337566,361126,江西省上饶市弋阳县龟峰景区(公交站),False
江西省,上饶市,婺源县,篁岭景区,,江西省上饶市篁岭景区,118.125121,29.330208,361130,江西省上饶市婺源县篁岭景区(公交站),False
江西省,鹰潭市,贵溪市,龙虎山旅游景区,,江西省鹰潭市龙虎山旅游景区,117.020212,28.215638,360602,月湖岩公园,False
江西省,景德镇市,昌江区,景德镇古窑民俗博览区,,江西省景德镇市景德镇古窑民俗博览区,117.184813,29.283430,360202,江西省景德镇市昌江区景德镇古窑民俗博览区,False
江西省,赣州市,瑞金市,共和国摇篮旅游区,,江西省赣州市共和国摇篮旅游区,114.368540,25.388923,360723,牡丹亭,False
江西省,赣州市,安远县,三百山景区,,江西省赣州市三百山景区,115.388557,25.112689,360726,书香公园,False
江西省,宜春市,袁州区,明月山旅游区,,江西省宜春市明月山旅游区,114.394391,27.777383,360902,狮子山运动公园,False
江西省,抚州市,资溪县,大觉山景区,,江西省抚州市大觉山景区,116.358021,27.941782,361002,抚州名人雕塑园,False
江西省,南昌市,东湖区,滕王阁旅游区,,江西省南昌市滕王阁旅游区,115.939821,29.028715,360112,南昌汉代海昏侯国国家考古遗址公园,False
江西省,萍乡市,芦溪县,武功山景区,,江西省萍乡市武功山景区,113.720609,27.638194,360313,龙舟健康主题公园,False
山东省,烟台市,蓬莱区,蓬莱阁旅游区,,山东省烟台市蓬莱阁旅游区,120.725742,37.978485,370614,月牙湾公园,False
山东省,烟台市,龙口市,龙口南山景区,,山东省烟台市龙口南山景区,120.491329,37.597744,370681,南山学院-西花园,False
山东省,济宁市,曲阜市,曲阜明故城（三孔）旅游区,,山东省济宁市曲阜明故城（三孔）旅游区,116.352179,35.402463,370829,萌山公园,False
山东省,济宁市,微山县,微山湖旅游区,,山东省济宁市微山湖旅游区,117.022587,34.879668,370826,微山湖二级坝湿地景区,False
山东省,泰安市,岱岳区,泰山景区,,山东省泰安市泰山景区,117.132766,36.209957,370902,虎山公园,False
山东省,青岛市,崂山区,崂山景区,,山东省青岛市崂山景区,120.331561,36.066446,370202,信号山公园,False
山东省,青岛市,市南区,奥帆海洋文化旅游区,,山东省青岛市奥帆海洋文化旅游区,120.442576,36.306771,370214,国学公园,False
山东省,威海市,环翠区,刘公岛景区,,山东省威海市刘公岛景区,122.144823,37.465201,371002,威海公园,False
山东省,威海市,环翠区,华夏城旅游景区,,山东省威海市华夏城旅游景区,122.016763,37.526133,371002,小石岛钓鱼赶海公园,False
山东省,枣庄市,台儿庄区,台儿庄古城景区,,山东省枣庄市台儿庄古城景区,117.747103,34.557953,370405,台儿庄古城-大战遗址公园,False
山东省,济南市,历下区,天下第一泉景区,,山东省济南市天下第一泉景区,117.015893,36.661087,370102,趵突泉景区,False
山东省,临沂市,蒙阴县,沂蒙山景区,,山东省临沂市沂蒙山景区,118.036554,35.436856,371325,沂蒙山国家地质公园,False
山东省,临沂市,沂水县,萤火虫水洞·地下大峡谷旅游区,,山东省临沂市萤火虫水洞·地下大峡谷旅游区,118.428869,34.544899,371322,马陵山省级地质公园,False
山东省,潍坊市,青州市,青州古城旅游区,,山东省潍坊市青州古城旅游区,118.461843,36.685123,370781,范公亭公园,False
山东省,东营市,垦利区,黄河口生态旅游区,,山东省东营市黄河口生态旅游区,118.510677,37.883210,370503,河口鸣翠湖湿地风景区,False
山东省,淄博市,周村区,周村古商城景区,,山东省淄博市周村古商城景区,117.894789,36.519279,370304,莲花山公园,False
河南省,郑州市,登封市,嵩山少林景区,,河南省郑州市嵩山少林景区,112.949076,34.486349,410185,河南省郑州市登封市少林景区,False
河南省,洛阳市,洛龙区,龙门石窟景区,,河南省洛阳市龙门石窟景区,112.421425,34.666795,410305,王城公园,False
河南省,洛阳市,嵩县,白云山景区,,河南省洛阳市白云山景区,113.295548,23.160579,440111,云萝植物园,False
河南省,洛阳市,栾川县,老君山·鸡冠洞旅游区景区,,河南省洛阳市老君山·鸡冠洞旅游区景区,112.460318,34.679369,410303,隋唐洛阳城国家遗址公园,False
河南省,洛阳市,新安县,龙潭大峡谷景区,,河南省洛阳市龙潭大峡谷景区,112.460318,34.679369,410303,隋唐洛阳城国家遗址公园,False
河南省,焦作市,修武县,云台山风景名胜区（云台山—神农山—博爱青天河风景名胜区）,,河南省焦作市云台山风景名胜区（云台山—神农山—博爱青天河风景名胜区）,113.379687,35.447289,410821,茱萸峰景区-河南云台山国家森林公园,False
河南省,焦作市,沁阳市,神农山（云台山—神农山—博爱青天河风景名胜区）,,河南省焦作市神农山（云台山—神农山—博爱青天河风景名胜区）,113.379687,35.447289,410821,茱萸峰景区-河南云台山国家森林公园,False
河南省,焦作市,博爱县,青天河景区（云台山—神农山—博爱青天河风景名胜区）,,河南省焦作市青天河景区（云台山—神农山—博爱青天河风景名胜区）,113.379687,35.447289,410821,茱萸峰景区-河南云台山国家森林公园,False
河南省,开封市,龙亭区,清明上河园,,河南省开封市清明上河园,114.340685,34.809044,410202,河南省开封市龙亭区清明上河园,False
河南省,安阳市,殷都区,殷墟景区,,河南省安阳市殷墟景区,114.326657,36.116290,410505,洹春园,False
河南省,安阳市,林州市,红旗渠、太行大峡谷旅游景区,,河南省安阳市红旗渠、太行大峡谷旅游景区,113.929503,35.847454,410581,万泉湖景区,False
河南省,平顶山市,鲁山县,尧山—中原大佛景区,,河南省平顶山市尧山—中原大佛景区,112.400327,33.747339,410423,尧山地质公园,False
河南省,南阳市,西峡县,西峡伏牛山老界岭·恐龙遗址园旅游区,,河南省南阳市西峡伏牛山老界岭·恐龙遗址园旅游区,111.685832,33.230477,411323,湿地园,False
河南省,驻马店市,遂平县,嵖岈山旅游景区,,河南省驻马店市嵖岈山旅游景区,114.008580,32.996590,411702,高新区管委会游园,False
河南省,商丘市,永城市,芒砀山旅游景区,,河南省商丘市芒砀山旅游景区,116.524599,34.185575,411481,芒砀山-僖山景区,False
河南省,新乡市,辉县市,八里沟景区,,河南省新乡市八里沟景区,113.565933,35.599803,410782,新乡南太行户外运动公园,False
河南省,新乡市,辉县市,宝泉旅游区,,河南省新乡市宝泉旅游区,113.484805,35.450397,410782,河南省新乡市辉县市河南宝泉旅游区,False
河南省,信阳市,浉河区,鸡公山景区,,河南省信阳市鸡公山景区,114.103953,31.865807,411502,波尔登森林公园,False
河南省,周口市,淮阳区,太昊伏羲陵文化旅游区,,河南省周口市太昊伏羲陵文化旅游区,114.691817,33.636990,411602,周口公园,False
湖北省,武汉市,武昌区,黄鹤楼公园,,湖北省武汉市黄鹤楼公园,114.319404,30.610162,420102,汉口江滩,False
湖北省,武汉市,洪山区,东湖景区,,湖北省武汉市东湖景区,114.319404,30.610162,420102,汉口江滩,False
湖北省,武汉市,黄陂区,黄陂木兰文化生态旅游区,,湖北省武汉市黄陂木兰文化生态旅游区,114.309268,31.143113,420116,月亮湖郊野公园,False
湖北省,宜昌市,夷陵区,三峡大坝旅游区（三峡大坝-屈原故里旅游区）,,湖北省宜昌市三峡大坝旅游区（三峡大坝-屈原故里旅游区）,110.998645,30.810853,420506,中堡岛主题公园,False
湖北省,宜昌市,夷陵区,三峡人家风景区,,湖北省宜昌市三峡人家风景区,111.156941,30.792549,420506,湖北省宜昌市夷陵区三峡人家风景区,False
湖北省,宜昌市,夷陵区,三峡大瀑布景区,,湖北省宜昌市三峡大瀑布景区,111.324284,30.925407,420506,三峡晓峰国家地质公园,False
湖北省,宜昌市,秭归县,屈原故里（三峡大坝-屈原故里旅游区）,,湖北省宜昌市屈原故里（三峡大坝-屈原故里旅游区）,110.998645,30.810853,420506,中堡岛主题公园,False
湖北省,宜昌市,长阳土家族自治县,长阳清江画廊风景区,,湖北省宜昌市长阳清江画廊风景区,111.140038,30.464388,420528,湖北长阳清江国家地质公园,False
湖北省,十堰市,丹江口市,武当山风景区,,湖北省十堰市武当山风景区,110.825932,32.592706,420302,南山公园,False
湖北省,恩施土家族苗族自治州,巴东县,神龙溪纤夫文化旅游区,,湖北省恩施土家族苗族自治州神龙溪纤夫文化旅游区,109.472391,29.982963,422825,宣恩贡水河国家湿地公园,False
湖北省,恩施土家族苗族自治州,恩施市,恩施大峡谷景区,,湖北省恩施土家族苗族自治州恩施大峡谷景区,109.472391,29.982963,422825,宣恩贡水河国家湿地公园,False
湖北省,恩施土家族苗族自治州,利川市,腾龙洞景区,,湖北省恩施土家族苗族自治州腾龙洞景区,108.939506,30.282381,422802,龙船调公园,False
湖北省,神农架林区,,神农架生态旅游区,,湖北省神农架林区神农架生态旅游区,110.686914,31.741984,429021,湖北省神农架林区生态,False
湖北省,咸宁市,赤壁市,三国赤壁古战场景区,,湖北省咸宁市三国赤壁古战场景区,113.901141,29.726741,421281,法治文化主题公园,False
湖北省,襄阳市,襄城区,古隆中景区,,湖北省襄阳市古隆中景区,112.095095,32.008147,420602,万山梅花园,False
湖北省,荆门市,钟祥市,明显陵文化旅游景区,,湖北省荆门市明显陵文化旅游景区,112.192476,31.027011,420802,龙泉公园,False
湖北省,黄冈市,麻城市,麻城龟峰山景区,,湖北省黄冈市麻城龟峰山景区,115.231010,31.140710,421181,黄冈大别山世界地质公园,False
湖南省,衡阳市,南岳区,南岳衡山旅游区,,湖南省衡阳市南岳衡山旅游区,112.854647,27.233753,430423,紫巾山森林公园,False
湖南省,张家界市,武陵源区,张家界武陵源旅游区（张家界武陵源—天门山旅游区）,,湖南省张家界市张家界武陵源旅游区（张家界武陵源—天门山旅游区）,110.535801,29.351291,430811,中国张家界世界地质公园,False
湖南省,张家界市,永定区,天门山景区（张家界武陵源—天门山旅游区）,,湖南省张家界市天门山景区（张家界武陵源—天门山旅游区）,110.535801,29.351291,430811,中国张家界世界地质公园,False
湖南省,长沙市,岳麓区,岳麓山—橘子洲旅游区,,湖南省长沙市岳麓山—橘子洲旅游区,112.952708,28.169676,430104,天麓苑社区公园,False
湖南省,长沙市,宁乡市,花明楼景区,,湖南省长沙市花明楼景区,112.903672,28.174134,430104,桃花岭景区,False
湖南省,岳阳市,岳阳楼区,岳阳楼（岳阳楼—君山岛景区）,,湖南省岳阳市岳阳楼（岳阳楼—君山岛景区）,113.135377,29.345802,430602,岳阳市南湖公园,False
湖南省,岳阳市,君山区,君山岛（岳阳楼—君山岛景区）,,湖南省岳阳市君山岛（岳阳楼—君山岛景区）,113.014959,29.356618,430611,湖南省岳阳市君山区君山岛,False
湖南省,湘潭市,韶山市,韶山旅游区,,湖南省湘潭市韶山旅游区,112.864035,27.979866,430302,矿山公园,False
湖南省,郴州市,资兴市,东江湖旅游区,,湖南省郴州市东江湖旅游区,113.416348,25.944687,431081,兴宁景区—兴宁河入湖口湿地公园,False
湖南省,邵阳市,新宁县,崀山景区,,湖南省邵阳市崀山景区,110.788434,26.324670,430528,湖南省邵阳市新宁县崀山风景名胜区,False
湖南省,株洲市,炎陵县,炎帝陵景区,,湖南省株洲市炎帝陵景区,113.587311,27.210653,430223,酒埠江国家地质公园,False
湖南省,常德市,桃源县,桃花源旅游区,,湖南省常德市桃花源旅游区,111.709124,29.115127,430702,螺湾观鸟湿地公园,False
湖南省,湘西土家族苗族自治州,吉首市,矮寨（矮寨·十八洞·德夯大峡谷景区）,,湖南省湘西土家族苗族自治州矮寨（矮寨·十八洞·德夯大峡谷景区）,109.848028,28.984494,433127,不二门国家森林公园,False
湖南省,湘西土家族苗族自治州,吉首市,德夯大峡谷（矮寨·十八洞·德夯大峡谷景区）,,湖南省湘西土家族苗族自治州德夯大峡谷（矮寨·十八洞·德夯大峡谷景区）,109.848028,28.984494,433127,不二门国家森林公园,False
湖南省,湘西土家族苗族自治州,花垣县,十八洞（矮寨·十八洞·德夯大峡谷景区）,,湖南省湘西土家族苗族自治州十八洞（矮寨·十八洞·德夯大峡谷景区）,109.848028,28.984494,433127,不二门国家森林公园,False
湖南省,湘西土家族苗族自治州,凤凰县,凤凰古城旅游区,,湖南省湘西土家族苗族自治州凤凰古城旅游区,109.600019,27.950934,433123,笔架山舞鹤公园,False
广东省,广州市,番禺区,长隆旅游度假区,,广东省广州市长隆旅游度假区,113.272088,23.184345,440111,广州市儿童公园,False
广东省,广州市,白云区,白云山风景区,,广东省广州市白云山风景区,113.265561,23.140096,440104,越秀公园,False
广东省,深圳市,南山区,深圳华侨城旅游度假区,,广东省深圳市深圳华侨城旅游度假区,114.289153,22.629920,440308,云海谷体育公园,False
广东省,深圳市,龙华区,观澜湖休闲旅游区,,广东省深圳市观澜湖休闲旅游区,113.972602,22.518968,440305,深圳湾公园,False
广东省,佛山市,南海区,西樵山景区,,广东省佛山市西樵山景区,112.970111,22.930467,440605,西樵山风景名胜区-天湖公园,False
广东省,佛山市,顺德区,长鹿旅游休博园,,广东省佛山市长鹿旅游休博园,113.289411,22.878357,440606,广东省佛山市顺德区长鹿旅游休博园,False
广东省,韶关市,仁化县,丹霞山景区,,广东省韶关市丹霞山景区,113.791530,25.179264,440224,仁化县丹霞街道红锥公园,False
广东省,梅州市,梅县区,雁南飞茶田景区,,广东省梅州市雁南飞茶田景区,116.364842,24.386558,441403,广东省梅州市梅县区雁南飞茶田景区(西北门),False
广东省,惠州市,博罗县,罗浮山景区,,广东省惠州市罗浮山景区,113.981938,23.228610,441322,徐田村党建公园,False
广东省,惠州市,惠城区,惠州西湖旅游景区,,广东省惠州市惠州西湖旅游景区,114.402068,23.081696,441302,惠州西湖风景名胜区-南苑公园,False
广东省,中山市,,孙中山故里旅游区,,广东省中山市孙中山故里旅游区,113.411095,22.507851,442000,紫马岭公园,False
广东省,江门市,开平市,开平碉楼文化旅游区,,广东省江门市开平碉楼文化旅游区,113.039241,22.527609,440705,马山,False
广东省,阳江市,江城区,海陵岛大角湾海上丝路旅游区,,广东省阳江市海陵岛大角湾海上丝路旅游区,111.853680,21.571074,441702,海陵岛风景区国家级海洋公园,False
广东省,肇庆市,端州区,星湖旅游景区,,广东省肇庆市星湖旅游景区,112.470827,23.059433,441202,牌坊公园,False
广东省,清远市,连州市,连州地下河旅游景区,,广东省清远市连州地下河旅游景区,113.058085,23.713863,441802,莲塘体育公园,False
广东省,河源市,东源县,万绿湖风景区,,广东省河源市万绿湖风景区,114.631793,23.774255,441625,广东省河源市东源县万绿湖风景区,False
广西壮族自治区,桂林市,阳朔县,漓江景区,,广西壮族自治区桂林市漓江景区,110.287386,25.249575,450304,南溪山公园,False
广西壮族自治区,桂林市,兴安县,乐满地度假世界,,广西壮族自治区桂林市乐满地度假世界,111.083474,25.941823,450324,湘源文化公园,False
广西壮族自治区,桂林市,秀峰区,独秀峰－王城景区,,广西壮族自治区桂林市独秀峰－王城景区,110.297994,25.280569,450302,广西壮族自治区桂林市秀峰区独秀峰王城,False
广西壮族自治区,桂林市,秀峰区,两江四湖（两江四湖·象山景区）,,广西壮族自治区桂林市两江四湖（两江四湖·象山景区）,110.287386,25.249575,450304,南溪山公园,False
广西壮族自治区,桂林市,象山区,象山（两江四湖·象山景区）,,广西壮族自治区桂林市象山（两江四湖·象山景区）,110.287386,25.249575,450304,南溪山公园,False
广西壮族自治区,崇左市,大新县,德天跨国瀑布景区,,广西壮族自治区崇左市德天跨国瀑布景区,107.150948,23.087244,451425,丽川文化森林公园,False
广西壮族自治区,崇左市,宁明县,花山岩画景区,,广西壮族自治区崇左市花山岩画景区,107.011044,22.252333,451422,广西壮族自治区崇左市宁明县花山岩画,False
广西壮族自治区,百色市,右江区,百色起义纪念园景区,,广西壮族自治区百色市百色起义纪念园景区,106.633018,23.898686,451002,半岛公园,False
广西壮族自治区,南宁市,青秀区,青秀山旅游区,,广西壮族自治区南宁市青秀山旅游区,108.412033,22.776444,450103,丘石公园,False
广西壮族自治区,北海市,海城区,涠洲岛南湾鳄鱼山景区,,广西壮族自治区北海市涠洲岛南湾鳄鱼山景区,109.101538,21.010671,450502,广西北海涠洲岛火山国家地质公园,False
广西壮族自治区,贺州市,昭平县,黄姚古镇景区,,广西壮族自治区贺州市黄姚古镇景区,111.228736,24.291722,451121,岩头香樟公园,False
广西壮族自治区,柳州市,三江侗族自治县,程阳八寨景区,,广西壮族自治区柳州市程阳八寨景区,109.404678,24.367760,450205,雀儿山公园,False
海南省,三亚市,崖州区,南山文化旅游区,,海南省三亚市南山文化旅游区,109.501310,18.225639,460203,鹿回头风景区,False
海南省,三亚市,崖州区,南山大小洞天旅游区,,海南省三亚市南山大小洞天旅游区,109.501310,18.225639,460203,鹿回头风景区,False
海南省,三亚市,海棠区,蜈支洲岛旅游区,,海南省三亚市蜈支洲岛旅游区,109.501310,18.225639,460203,鹿回头风景区,False
海南省,三亚市,天涯区,天涯海角游览区,,海南省三亚市天涯海角游览区,109.501310,18.225639,460203,鹿回头风景区,False
海南省,,陵水县,分界洲岛旅游区,,海南省分界洲岛旅游区,109.501310,18.225639,460203,鹿回头风景区,False
海南省,,保亭县,呀诺达雨林文化旅游区,,海南省呀诺达雨林文化旅游区,109.501310,18.225639,460203,鹿回头风景区,False
海南省,,保亭县,槟榔谷黎苗文化旅游区,,海南省槟榔谷黎苗文化旅游区,110.624929,19.612128,460107,东昌文化公园,False
重庆市,,大足区,重庆大足石刻景区,,重庆市重庆大足石刻景区,106.536235,29.549688,500103,鹅岭公园,False
重庆市,,巫山县,重庆小三峡-小小三峡,,重庆市重庆小三峡-小小三峡,106.695973,29.224074,500113,圣灯山原始森林公园,False
重庆市,,武隆区,武隆喀斯特旅游区（天生三桥、仙女山、芙蓉洞),,重庆市武隆喀斯特旅游区（天生三桥、仙女山、芙蓉洞),107.747395,29.315724,500156,凤山公园,False
重庆市,,南川区,金佛山-神龙峡景区,,重庆市金佛山-神龙峡景区,107.188565,29.013356,500119,世界野生古杜鹃公园,False
重庆市,,酉阳土家族苗族自治县,酉阳桃花源景区,,重庆市酉阳桃花源景区,108.765630,28.862675,500242,梦幻桃源,False
重庆市,,綦江区,黑山谷景区,,重庆市黑山谷景区,107.013170,28.925021,500110,百花谷花卉主题公园,False
重庆市,,江津区,江津四面山景区,,重庆市江津四面山景区,106.392153,28.616350,500116,重庆市江津区四面山国家级风景名胜区,False
重庆市,,云阳县,云阳龙缸景区,,重庆市云阳龙缸景区,109.011648,30.666929,500235,重庆云阳龙缸国家地质公园-望龙亭,False
重庆市,,彭水县,阿依河景区,,重庆市阿依河景区,108.158288,29.171593,500243,重庆市彭水苗族土家族自治县阿依河景区,False
重庆市,,黔江区,濯水景区,,重庆市濯水景区,108.813091,29.510971,500114,中国黔江城市大峡谷景区,False
重庆市,,奉节县,白帝城·瞿塘峡景区,,重庆市白帝城·瞿塘峡景区,109.580984,31.038653,500236,重庆市奉节县白帝城·瞿塘峡景区,False
重庆市,,涪陵区,武陵山大裂谷景区,,重庆市武陵山大裂谷景区,107.570107,29.495603,500102,重庆市涪陵区武陵山大裂谷景区,False
四川省,成都市,都江堰市,青城山—都江堰旅游景区,,四川省成都市青城山—都江堰旅游景区,103.618700,30.898765,510181,GREENLAND PARK,False
四川省,成都市,大邑县,安仁古镇景区,,四川省成都市安仁古镇景区,103.624030,30.505134,510129,四川省成都市大邑县安仁古镇,False
四川省,成都市,邛崃市,天台山景区,,四川省成都市天台山景区,103.130651,30.291174,510183,天台山森林越野公园,False
四川省,乐山市,峨眉山市,峨眉山景区,,四川省乐山市峨眉山景区,103.506747,29.588635,511181,文体公园,False
四川省,乐山市,市中区,乐山大佛景区,,四川省乐山市乐山大佛景区,103.774579,29.537899,511102,麻浩河湿地公园,False
四川省,阿坝藏族羌族自治州,九寨沟县,九寨沟旅游景区,,四川省阿坝藏族羌族自治州九寨沟旅游景区,103.716509,33.030541,513224,岷江源国家湿地公园,False
四川省,阿坝藏族羌族自治州,松潘县,黄龙景区,,四川省阿坝藏族羌族自治州黄龙景区,103.716509,33.030541,513224,岷江源国家湿地公园,False
四川省,阿坝藏族羌族自治州,汶川县,汶川特别旅游区,,四川省阿坝藏族羌族自治州汶川特别旅游区,103.344914,30.916448,513221,阿坝州汶川特别旅游区-惠州公园,False
四川省,阿坝藏族羌族自治州,小金县,四姑娘山景区,,四川省阿坝藏族羌族自治州四姑娘山景区,102.899998,31.100000,513227,四川省阿坝藏族羌族自治州小金县四姑娘山景区,False
四川省,南充市,阆中市,阆中古城旅游景区,,四川省南充市阆中古城旅游景区,105.964338,31.567070,511381,锦屏山,False
四川省,南充市,仪陇县,仪陇朱德故里景区,,四川省南充市仪陇朱德故里景区,106.596316,31.459711,511324,四川省南充市仪陇县朱德故里景区,False
四川省,绵阳市,北川羌族自治县,北川羌城旅游区,,四川省绵阳市北川羌城旅游区,104.452488,31.808881,510726,四川省绵阳市北川羌族自治县北川羌城旅游区,False
四川省,广安市,广安区,邓小平故里旅游区,,四川省广安市邓小平故里旅游区,106.927664,30.336086,511623,银鼎山景区,False
四川省,广元市,剑阁县,剑门蜀道剑门关旅游区,,四川省广元市剑门蜀道剑门关旅游区,105.898428,32.417928,510802,广元市红星公园,False
四川省,甘孜藏族自治州,泸定县,海螺沟景区,,四川省甘孜藏族自治州海螺沟景区,101.891623,30.877980,513323,四川丹巴白云母国家矿山公园,False
四川省,甘孜藏族自治州,稻城县,稻城亚丁旅游景区,,四川省甘孜藏族自治州稻城亚丁旅游景区,100.186917,29.435370,513337,四川稻城亚丁地质公园,False
四川省,雅安市,雨城区,碧峰峡旅游景区,,四川省雅安市碧峰峡旅游景区,102.886282,29.624747,511822,龙苍沟国家森林公园,False
四川省,巴中市,南江县,光雾山旅游景区,,四川省巴中市光雾山旅游景区,106.864285,32.713328,511922,光雾山-诺水河地质公园,False
贵州省,安顺市,镇宁布依族苗族自治县,黄果树大瀑布景区,,贵州省安顺市黄果树大瀑布景区,105.668716,25.988506,520424,黄果树风景名胜区,False
贵州省,安顺市,西秀区,龙宫景区,,贵州省安顺市龙宫景区,105.668716,25.988506,520424,黄果树风景名胜区,False
贵州省,毕节市,大方县,百里杜鹃景区,,贵州省毕节市百里杜鹃景区,105.295650,27.287792,520502,双拥主题公园,False
贵州省,毕节市,织金县,织金洞景区,,贵州省毕节市织金洞景区,105.883673,26.772214,520524,贵州省毕节市织金县织金洞景区,False
贵州省,黔南布依族苗族自治州,荔波县,荔波樟江景区,,贵州省黔南布依族苗族自治州荔波樟江景区,107.483344,27.122354,522725,飞练湖湿地公园,False
贵州省,贵阳市,花溪区,青岩古镇景区,,贵州省贵阳市青岩古镇景区,106.683938,26.357388,520111,贵阳花溪傩文化公园,False
贵州省,铜仁市,江口县,梵净山旅游区,,贵州省铜仁市梵净山旅游区,108.837119,27.704790,520621,梵净山公园,False
贵州省,黔东南苗族侗族自治州,镇远县,镇远古城旅游景区,,贵州省黔东南苗族侗族自治州镇远古城旅游景区,108.411240,27.038538,522625,河滩公园,False
贵州省,遵义市,赤水市,赤水丹霞旅游区,,贵州省遵义市赤水丹霞旅游区,105.948589,28.399094,520381,贵州省遵义市赤水市赤水丹霞旅游区,True
贵州省,黔西南布依族苗族自治州,兴义市,万峰林景区,,贵州省黔西南布依族苗族自治州万峰林景区,104.948595,25.131516,522301,马岭河峡谷湿地公园,False
云南省,昆明市,石林彝族自治县,石林风景区,,云南省昆明市石林风景区,102.658412,24.958925,530112,滇池海埂公园,False
云南省,昆明市,盘龙区,昆明世博园景区,,云南省昆明市昆明世博园景区,102.767492,25.078409,530103,世博森林公园,False
云南省,丽江市,玉龙纳西族自治县,玉龙雪山景区,,云南省丽江市玉龙雪山景区,100.187951,27.135685,530721,玉龙雪山国家级风景名胜区冰川公园,False
云南省,丽江市,古城区,丽江古城景区,,云南省丽江市丽江古城景区,100.139137,26.861179,530721,拉市海湿地公园,False
云南省,大理白族自治州,大理市,崇圣寺三塔文化旅游区,,云南省大理白族自治州崇圣寺三塔文化旅游区,100.156690,25.870703,532901,爱在海舌蜜月半岛,False
云南省,西双版纳傣族自治州,勐腊县,中国科学院西双版纳热带植物园,,云南省西双版纳傣族自治州中国科学院西双版纳热带植物园,100.789891,22.001415,532801,西双版纳南药园,False
云南省,迪庆藏族自治州,香格里拉市,香格里拉普达措景区,,云南省迪庆藏族自治州香格里拉普达措景区,98.871103,28.429298,533422,飞来寺国家森林公园,False
云南省,保山市,腾冲市,腾冲火山热海旅游区,,云南省保山市腾冲火山热海旅游区,98.486489,25.015353,530581,来凤山国家森林公园,False
云南省,保山市,腾冲市,和顺古镇景区,,云南省保山市和顺古镇景区,98.462589,25.003766,530581,云南樟,False
云南省,文山壮族苗族自治州,丘北县,普者黑旅游景区,,云南省文山壮族苗族自治州普者黑旅游景区,104.133551,24.098261,532626,云南普者黑喀斯特地貌国家湿地公园,False
西藏自治区,拉萨市,城关区,布达拉宫景区,,西藏自治区拉萨市布达拉宫景区,91.119844,29.657284,540102,宗角禄康公园,False
西藏自治区,拉萨市,城关区,大昭寺,,西藏自治区拉萨市大昭寺,91.119844,29.657284,540102,宗角禄康公园,False
西藏自治区,林芝市,工布江达县,巴松措景区,,西藏自治区林芝市巴松措景区,93.949037,30.014046,540421,西藏自治区林芝市工布江达县巴松措,False
西藏自治区,林芝市,米林县,雅鲁藏布大峡谷旅游景区,,西藏自治区林芝市雅鲁藏布大峡谷旅游景区,94.368009,29.641281,540402,林海,False
西藏自治区,日喀则市,桑珠孜区,扎什伦布寺景区,,西藏自治区日喀则市扎什伦布寺景区,88.871941,29.265392,540202,西藏自治区日喀则市桑珠孜区扎什伦布寺,False
陕西省,西安市,临潼区,秦始皇兵马俑博物馆,,陕西省西安市秦始皇兵马俑博物馆,108.984261,34.202160,610113,曲江池遗址公园,False
陕西省,西安市,临潼区,华清池景区,,陕西省西安市华清池景区,108.947030,34.259430,610104,西安钟楼,False
陕西省,西安市,雁塔区,大雁塔·大唐芙蓉园景区,,陕西省西安市大雁塔·大唐芙蓉园景区,108.984261,34.202160,610113,曲江池遗址公园,False
陕西省,西安市,碑林区,城墙·碑林历史文化景区,,陕西省西安市城墙·碑林历史文化景区,108.983538,34.253821,610103,兴庆宫公园,False
陕西省,西安市,新城区,大明宫旅游景区,,陕西省西安市大明宫旅游景区,108.775124,34.209154,610116,昆明池·七夕公园,False
陕西省,延安市,黄陵县,黄帝陵景区,,陕西省延安市黄帝陵景区,109.497346,36.593453,610602,宝塔山景区,False
陕西省,延安市,宝塔区,延安革命纪念地景区,,陕西省延安市延安革命纪念地景区,110.013078,36.569465,610621,翠屏山公园,False
陕西省,延安市,宜川县,黄河壶口瀑布旅游区,,陕西省延安市黄河壶口瀑布旅游区,110.013078,36.569465,610621,翠屏山公园,False
陕西省,延安市,延川县,黄河乾坤湾景区,,陕西省延安市黄河乾坤湾景区,110.013078,36.569465,610621,翠屏山公园,False
陕西省,渭南市,华阴市,华山景区,,陕西省渭南市华山景区,110.098002,34.539259,610582,华山风景名胜区-华山地质公园,False
陕西省,宝鸡市,扶风县,法门寺佛文化景区,,陕西省宝鸡市法门寺佛文化景区,107.193181,34.348097,610302,中华石鼓园,False
陕西省,宝鸡市,眉县,太白山旅游景区,,陕西省宝鸡市太白山旅游景区,107.193181,34.348097,610302,中华石鼓园,False
陕西省,商洛市,商南县,金丝峡景区,,陕西省商洛市金丝峡景区,110.579142,33.401316,611023,金丝峡景区-太子坪湿地公园,False
陕西省,咸阳市,乾县,乾陵景区,,陕西省咸阳市乾陵景区,108.219484,34.572302,610424,陕西省咸阳市乾县乾陵景区,False
甘肃省,嘉峪关市,,嘉峪关文物景区,,甘肃省嘉峪关市嘉峪关文物景区,98.166402,39.731378,620200,嘉峪关戈壁大峡谷地质公园,False
甘肃省,平凉市,崆峒区,崆峒山风景名胜区,,甘肃省平凉市崆峒山风景名胜区,106.680581,35.570184,620802,虎山公园(暂停开放),False
甘肃省,天水市,麦积区,麦积山景区,,甘肃省天水市麦积山景区,105.898952,34.575705,620503,北山公园,False
甘肃省,酒泉市,敦煌市,鸣沙山月牙泉景区,,甘肃省酒泉市鸣沙山月牙泉景区,94.674219,40.130282,620982,飞天公园,False
甘肃省,张掖市,临泽县,七彩丹霞景区,,甘肃省张掖市七彩丹霞景区,99.550166,38.921625,620721,神鹿公园,False
甘肃省,临夏回族自治州,永靖县,炳灵寺世界文化遗产旅游区,,甘肃省临夏回族自治州炳灵寺世界文化遗产旅游区,103.286342,35.953432,622923,永靖县古城新区水景公园,False
甘肃省,陇南市,宕昌县,官鹅沟景区,,甘肃省陇南市官鹅沟景区,105.246884,32.752360,621222,碧山公园,False
甘肃省,甘南藏族自治州,临潭县,冶力关旅游区,,甘肃省甘南藏族自治州冶力关旅游区,103.598836,34.949553,623021,黄捻子森林公园,False
青海省,海北藏族自治州,刚察县,青海湖景区,,青海省海北藏族自治州青海湖景区,100.885924,36.936413,632223,环青海湖自行车自驾车营地公园,False
青海省,海北藏族自治州,祁连县,阿咪东索景区,,青海省海北藏族自治州阿咪东索景区,100.937532,37.968441,632222,峨堡古城遗址公园,False
青海省,西宁市,湟中区,塔尔寺景区,,青海省西宁市塔尔寺景区,101.615332,36.495514,630106,莲湖游园,False
青海省,海东市,互助土族自治县,互助土族故土园景区,,青海省海东市互助土族故土园景区,102.100573,36.511158,630203,平安区体育公园,False
宁夏回族自治区,石嘴山市,平罗县,沙湖旅游景区,,宁夏回族自治区石嘴山市沙湖旅游景区,106.372233,38.958410,640202,星海湖国家湿地公园,False
宁夏回族自治区,中卫市,沙坡头区,沙坡头旅游景区,,宁夏回族自治区中卫市沙坡头旅游景区,105.194333,37.485885,640502,香山公园,False
宁夏回族自治区,银川市,西夏区,镇北堡西部影视城,,宁夏回族自治区银川市镇北堡西部影视城,106.325970,38.547502,640122,迎宾公园,False
宁夏回族自治区,银川市,灵武市,灵武水洞沟旅游区,,宁夏回族自治区银川市灵武水洞沟旅游区,106.471845,38.388409,640104,水洞沟旧石器遗址公园,False
宁夏回族自治区,吴忠市,青铜峡市,黄河大峡谷旅游区,,宁夏回族自治区吴忠市黄河大峡谷旅游区,107.080991,38.053610,640323,盐池古长城遗址公园,False
宁夏回族自治区,固原市,隆德县,六盘山红军长征旅游区,,宁夏回族自治区固原市六盘山红军长征旅游区,106.193858,35.668178,640423,宁夏回族自治区固原市隆德县六盘山红军长征旅游区(公交站),False
新疆维吾尔自治区,昌吉回族自治州,阜康市,新疆天山天池风景名胜区,,新疆维吾尔自治区昌吉回族自治州新疆天山天池风景名胜区,88.065338,43.997506,652302,天山天池民俗风情园,False
新疆维吾尔自治区,昌吉回族自治州,奇台县,江布拉克景区,,新疆维吾尔自治区昌吉回族自治州江布拉克景区,86.185689,44.278604,652324,西海公园,False
新疆维吾尔自治区,吐鲁番市,高昌区,葡萄沟风景区,,新疆维吾尔自治区吐鲁番市葡萄沟风景区,89.248862,43.009371,650402,新疆维吾尔自治区吐鲁番市高昌区葡萄沟风景区,False
新疆维吾尔自治区,阿勒泰地区,布尔津县,喀纳斯景区,,新疆维吾尔自治区阿勒泰地区喀纳斯景区,88.138412,47.935067,654301,阿尔泰山野雪公园,False
新疆维吾尔自治区,阿勒泰地区,富蕴县,可可托海景区,,新疆维吾尔自治区阿勒泰地区可可托海景区,89.874936,47.221302,654322,可可托海地质公园,False
新疆维吾尔自治区,阿勒泰地区,哈巴河县,白沙湖景区,,新疆维吾尔自治区阿勒泰地区白沙湖景区,85.746345,48.372480,654324,新疆维吾尔自治区阿勒泰地区哈巴河县白沙湖景区,False
新疆维吾尔自治区,伊犁哈萨克自治州,新源县,那拉提旅游风景区,,新疆维吾尔自治区伊犁哈萨克自治州那拉提旅游风景区,82.706033,43.516670,654025,那拉提国家湿地公园,False
新疆维吾尔自治区,伊犁哈萨克自治州,特克斯县,喀拉峻景区,,新疆维吾尔自治区伊犁哈萨克自治州喀拉峻景区,82.194191,43.037289,654027,喀拉峻野雪公园(暂停开放),False
新疆维吾尔自治区,喀什地区,泽普县,泽普金湖杨景区,,新疆维吾尔自治区喀什地区泽普金湖杨景区,77.261730,38.179633,653124,法桐生态公园,False
新疆维吾尔自治区,喀什地区,喀什市,喀什噶尔老城景区,,新疆维吾尔自治区喀什地区喀什噶尔老城景区,76.150075,38.968425,653123,绿水湾公园,False
新疆维吾尔自治区,喀什地区,塔什库尔干塔吉克自治县,帕米尔旅游区,,新疆维吾尔自治区喀什地区帕米尔旅游区,75.237283,37.786433,653131,新疆帕米尔高原阿拉尔国家湿地公园,False
新疆维吾尔自治区,乌鲁木齐市,乌鲁木齐县,天山大峡谷景区,,新疆维吾尔自治区乌鲁木齐市天山大峡谷景区,87.688296,43.783458,650102,博格达公园,False
新疆维吾尔自治区,巴音郭楞蒙古自治州,博湖县,博斯腾湖景区,,新疆维吾尔自治区巴音郭楞蒙古自治州博斯腾湖景区,86.568270,41.747972,652829,越野星球四驱文化主题公园,False
新疆维吾尔自治区,巴音郭楞蒙古自治州,和静县,和静巴音布鲁克景区,,新疆维吾尔自治区巴音郭楞蒙古自治州和静巴音布鲁克景区,84.144120,43.025805,652827,新疆维吾尔自治区巴音郭楞蒙古自治州和静县巴音布鲁克,False
新疆维吾尔自治区,克拉玛依市,乌尔禾区,世界魔鬼城景区,,新疆维吾尔自治区克拉玛依市世界魔鬼城景区,84.849172,45.591499,650203,克拉玛依区生态休闲健身公园,False
新疆维吾尔自治区,博尔塔拉蒙古自治州,博乐市,赛里木湖景区,,新疆维吾尔自治区博尔塔拉蒙古自治州赛里木湖景区,82.074097,44.903753,652701,街心游园,False
新疆维吾尔自治区,,阿拉尔市,塔克拉玛干·三五九旅文化旅游区,,新疆维吾尔自治区塔克拉玛干·三五九旅文化旅游区,87.282725,43.955584,652301,头屯河谷森林公园,False
新疆维吾尔自治区,阿克苏地区,温宿县,天山托木尔景区,,新疆维吾尔自治区阿克苏地区天山托木尔景区,82.604412,41.553216,652925,新和县都护水韵公园,False
